CTC2_L_00604001-01
1 53811U 26028ON  26070.40851852  .00000000  00000+0  00000-0 0  9993
2 53811  70.0000   0.0000 0000000   0.0000   0.0000  5.94050274    14
CTC2_L_00604001-02
1 53812U 26901S   26070.40851852  .00000000  00000+0  00000-0 0  9994
2 53812  70.0000   0.0000 0000000   0.0000  36.0000  5.94050274    14
CTC2_L_00604001-03
1 53813U 26708RQ  26070.40851852  .00000000  00000+0  00000-0 0  9990
2 53813  70.0000   0.0000 0000000   0.0000  72.0000  5.94050274    15
CTC2_L_00604001-04
1 53814U 24559ZR  26070.40851852  .00000000  00000+0  00000-0 0  9993
2 53814  70.0000   0.0000 0000000   0.0000 108.0000  5.94050274    16
CTC2_L_00604001-05
1 53815U 24923TE  26070.40851852  .00000000  00000+0  00000-0 0  9999
2 53815  70.0000   0.0000 0000000   0.0000 144.0000  5.94050274    17
CTC2_L_00604001-06
1 53816U 25541MU  26070.40851852  .00000000  00000+0  00000-0 0  9997
2 53816  70.0000   0.0000 0000000   0.0000 180.0000  5.94050274    18
CTC2_L_00604001-07
1 53817U 23278PY  26070.40851852  .00000000  00000+0  00000-0 0  9993
2 53817  70.0000   0.0000 0000000   0.0000 216.0000  5.94050274    19
CTC2_L_00604001-08
1 53818U 23350MG  26070.40851852  .00000000  00000+0  00000-0 0  9995
2 53818  70.0000   0.0000 0000000   0.0000 252.0000  5.94050274    10
CTC2_L_00604001-09
1 53819U 26377LY  26070.40851852  .00000000  00000+0  00000-0 0  9998
2 53819  70.0000   0.0000 0000000   0.0000 288.0000  5.94050274    10
CTC2_L_00604001-10
1 53820U 23125CL  26070.40851852  .00000000  00000+0  00000-0 0  9998
2 53820  70.0000   0.0000 0000000   0.0000 324.0000  5.94050274    13
CTC2_L_00604002-01
1 53821U 23029VJ  26070.40851852  .00000000  00000+0  00000-0 0  9992
2 53821  70.0000  30.0000 0000000   0.0000  12.0000  5.94050274    11
CTC2_L_00604002-02
1 53822U 23845ZD  26070.40851852  .00000000  00000+0  00000-0 0  9999
2 53822  70.0000  30.0000 0000000   0.0000  48.0000  5.94050274    11
CTC2_L_00604002-03
1 53823U 24296EW  26070.40851852  .00000000  00000+0  00000-0 0  9991
2 53823  70.0000  30.0000 0000000   0.0000  84.0000  5.94050274    12
CTC2_L_00604002-04
1 53824U 25360CL  26070.40851852  .00000000  00000+0  00000-0 0  9995
2 53824  70.0000  30.0000 0000000   0.0000 120.0000  5.94050274    14
CTC2_L_00604002-05
1 53825U 24109UX  26070.40851852  .00000000  00000+0  00000-0 0  9996
2 53825  70.0000  30.0000 0000000   0.0000 156.0000  5.94050274    14
CTC2_L_00604002-06
1 53826U 26516CL  26070.40851852  .00000000  00000+0  00000-0 0  9991
2 53826  70.0000  30.0000 0000000   0.0000 192.0000  5.94050274    15
CTC2_L_00604002-07
1 53827U 24732CY  26070.40851852  .00000000  00000+0  00000-0 0  9990
2 53827  70.0000  30.0000 0000000   0.0000 228.0000  5.94050274    16
CTC2_L_00604002-08
1 53828U 23880HM  26070.40851852  .00000000  00000+0  00000-0 0  9994
2 53828  70.0000  30.0000 0000000   0.0000 264.0000  5.94050274    17
CTC2_L_00604002-09
1 53829U 24258CA  26070.40851852  .00000000  00000+0  00000-0 0  9995
2 53829  70.0000  30.0000 0000000   0.0000 300.0000  5.94050274    19
CTC2_L_00604002-10
1 53830U 24886JM  26070.40851852  .00000000  00000+0  00000-0 0  9994
2 53830  70.0000  30.0000 0000000   0.0000 336.0000  5.94050274    10
CTC2_L_00604003-01
1 53831U 25636BK  26070.40851852  .00000000  00000+0  00000-0 0  9999
2 53831  70.0000  60.0000 0000000   0.0000  24.0000  5.94050274    18
CTC2_L_00604003-02
1 53832U 23282AE  26070.40851852  .00000000  00000+0  00000-0 0  9995
2 53832  70.0000  60.0000 0000000   0.0000  60.0000  5.94050274    19
CTC2_L_00604003-03
1 53833U 23768XZ  26070.40851852  .00000000  00000+0  00000-0 0  9995
2 53833  70.0000  60.0000 0000000   0.0000  96.0000  5.94050274    19
CTC2_L_00604003-04
1 53834U 25746EV  26070.40851852  .00000000  00000+0  00000-0 0  9994
2 53834  70.0000  60.0000 0000000   0.0000 132.0000  5.94050274    11
CTC2_L_00604003-05
1 53835U 25010PV  26070.40851852  .00000000  00000+0  00000-0 0  9999
2 53835  70.0000  60.0000 0000000   0.0000 168.0000  5.94050274    11
CTC2_L_00604003-06
1 53836U 24248CV  26070.40851852  .00000000  00000+0  00000-0 0  9992
2 53836  70.0000  60.0000 0000000   0.0000 204.0000  5.94050274    13
CTC2_L_00604003-07
1 53837U 23720DX  26070.40851852  .00000000  00000+0  00000-0 0  9997
2 53837  70.0000  60.0000 0000000   0.0000 240.0000  5.94050274    14
CTC2_L_00604003-08
1 53838U 22551SF  26070.40851852  .00000000  00000+0  00000-0 0  9999
2 53838  70.0000  60.0000 0000000   0.0000 276.0000  5.94050274    14
CTC2_L_00604003-09
1 53839U 26959UK  26070.40851852  .00000000  00000+0  00000-0 0  9996
2 53839  70.0000  60.0000 0000000   0.0000 312.0000  5.94050274    16
CTC2_L_00604003-10
1 53840U 24056YW  26070.40851852  .00000000  00000+0  00000-0 0  9994
2 53840  70.0000  60.0000 0000000   0.0000 348.0000  5.94050274    17
CTC2_L_00604004-01
1 53841U 24899DE  26070.40851852  .00000000  00000+0  00000-0 0  9990
2 53841  70.0000  90.0000 0000000   0.0000  36.0000  5.94050274    15
CTC2_L_00604004-02
1 53842U 22239YZ  26070.40851852  .00000000  00000+0  00000-0 0  9997
2 53842  70.0000  90.0000 0000000   0.0000  72.0000  5.94050274    16
CTC2_L_00604004-03
1 53843U 25355J   26070.40851852  .00000000  00000+0  00000-0 0  9990
2 53843  70.0000  90.0000 0000000   0.0000 108.0000  5.94050274    17
CTC2_L_00604004-04
1 53844U 25950XU  26070.40851852  .00000000  00000+0  00000-0 0  9992
2 53844  70.0000  90.0000 0000000   0.0000 144.0000  5.94050274    18
CTC2_L_00604004-05
1 53845U 22997OT  26070.40851852  .00000000  00000+0  00000-0 0  9991
2 53845  70.0000  90.0000 0000000   0.0000 180.0000  5.94050274    19
CTC2_L_00604004-06
1 53846U 24994SF  26070.40851852  .00000000  00000+0  00000-0 0  9991
2 53846  70.0000  90.0000 0000000   0.0000 216.0000  5.94050274    10
CTC2_L_00604004-07
1 53847U 22451SC  26070.40851852  .00000000  00000+0  00000-0 0  9998
2 53847  70.0000  90.0000 0000000   0.0000 252.0000  5.94050274    11
CTC2_L_00604004-08
1 53848U 26098GV  26070.40851852  .00000000  00000+0  00000-0 0  9990
2 53848  70.0000  90.0000 0000000   0.0000 288.0000  5.94050274    11
CTC2_L_00604004-09
1 53849U 24640WF  26070.40851852  .00000000  00000+0  00000-0 0  9992
2 53849  70.0000  90.0000 0000000   0.0000 324.0000  5.94050274    13
CTC2_L_00604004-10
1 53850U 26330SK  26070.40851852  .00000000  00000+0  00000-0 0  9992
2 53850  70.0000  90.0000 0000000   0.0000   0.0000  5.94050274    16
CTC2_L_00604005-01
1 53851U 22447JO  26070.40851852  .00000000  00000+0  00000-0 0  9998
2 53851  70.0000 120.0000 0000000   0.0000  48.0000  5.94050274    13
CTC2_L_00604005-02
1 53852U 22537WW  26070.40851852  .00000000  00000+0  00000-0 0  9999
2 53852  70.0000 120.0000 0000000   0.0000  84.0000  5.94050274    14
CTC2_L_00604005-03
1 53853U 25304NZ  26070.40851852  .00000000  00000+0  00000-0 0  9995
2 53853  70.0000 120.0000 0000000   0.0000 120.0000  5.94050274    16
CTC2_L_00604005-04
1 53854U 24851SW  26070.40851852  .00000000  00000+0  00000-0 0  9992
2 53854  70.0000 120.0000 0000000   0.0000 156.0000  5.94050274    16
CTC2_L_00604005-05
1 53855U 22033JR  26070.40851852  .00000000  00000+0  00000-0 0  9993
2 53855  70.0000 120.0000 0000000   0.0000 192.0000  5.94050274    17
CTC2_L_00604005-06
1 53856U 26815VY  26070.40851852  .00000000  00000+0  00000-0 0  9996
2 53856  70.0000 120.0000 0000000   0.0000 228.0000  5.94050274    18
CTC2_L_00604005-07
1 53857U 26303LP  26070.40851852  .00000000  00000+0  00000-0 0  9999
2 53857  70.0000 120.0000 0000000   0.0000 264.0000  5.94050274    19
CTC2_L_00604005-08
1 53858U 22766YQ  26070.40851852  .00000000  00000+0  00000-0 0  9999
2 53858  70.0000 120.0000 0000000   0.0000 300.0000  5.94050274    11
CTC2_L_00604005-09
1 53859U 25597ZI  26070.40851852  .00000000  00000+0  00000-0 0  9995
2 53859  70.0000 120.0000 0000000   0.0000 336.0000  5.94050274    11
CTC2_L_00604005-10
1 53860U 24636GF  26070.40851852  .00000000  00000+0  00000-0 0  9990
2 53860  70.0000 120.0000 0000000   0.0000  12.0000  5.94050274    14
CTC2_L_00604006-01
1 53861U 23876KW  26070.40851852  .00000000  00000+0  00000-0 0  9996
2 53861  70.0000 150.0000 0000000   0.0000  60.0000  5.94050274    11
CTC2_L_00604006-02
1 53862U 23909KK  26070.40851852  .00000000  00000+0  00000-0 0  9994
2 53862  70.0000 150.0000 0000000   0.0000  96.0000  5.94050274    11
CTC2_L_00604006-03
1 53863U 22429BZ  26070.40851852  .00000000  00000+0  00000-0 0  9991
2 53863  70.0000 150.0000 0000000   0.0000 132.0000  5.94050274    13
CTC2_L_00604006-04
1 53864U 26778NP  26070.40851852  .00000000  00000+0  00000-0 0  9993
2 53864  70.0000 150.0000 0000000   0.0000 168.0000  5.94050274    13
CTC2_L_00604006-05
1 53865U 24747NM  26070.40851852  .00000000  00000+0  00000-0 0  9998
2 53865  70.0000 150.0000 0000000   0.0000 204.0000  5.94050274    15
CTC2_L_00604006-06
1 53866U 25261EX  26070.40851852  .00000000  00000+0  00000-0 0  9991
2 53866  70.0000 150.0000 0000000   0.0000 240.0000  5.94050274    16
CTC2_L_00604006-07
1 53867U 26628VI  26070.40851852  .00000000  00000+0  00000-0 0  9990
2 53867  70.0000 150.0000 0000000   0.0000 276.0000  5.94050274    16
CTC2_L_00604006-08
1 53868U 25363EA  26070.40851852  .00000000  00000+0  00000-0 0  9996
2 53868  70.0000 150.0000 0000000   0.0000 312.0000  5.94050274    18
CTC2_L_00604006-09
1 53869U 25430BV  26070.40851852  .00000000  00000+0  00000-0 0  9992
2 53869  70.0000 150.0000 0000000   0.0000 348.0000  5.94050274    18
CTC2_L_00604006-10
1 53870U 23232NB  26070.40851852  .00000000  00000+0  00000-0 0  9992
2 53870  70.0000 150.0000 0000000   0.0000  24.0000  5.94050274    11
CTC2_L_00604007-01
1 53871U 24201NK  26070.40851852  .00000000  00000+0  00000-0 0  9990
2 53871  70.0000 180.0000 0000000   0.0000  72.0000  5.94050274    18
CTC2_L_00604007-02
1 53872U 22921FS  26070.40851852  .00000000  00000+0  00000-0 0  9998
2 53872  70.0000 180.0000 0000000   0.0000 108.0000  5.94050274    19
